<?xml version="1.0" encoding="UTF-8"?>
<gpx creator="Runner" version="1.1" xmlns="http://www.topografix.com/GPX/1/1" xmlns:xsi="http://www.w3.org/2001/XMLSchema-instance" xsi:schemaLocation="http://www.topografix.com/GPX/1/1 http://www.topografix.com/GPX/1/1/gpx.xsd http://www.garmin.com/xmlschemas/GpxExtensions/v3 http://www.garmin.com/xmlschemas/GpxExtensionsv3.xsd http://www.garmin.com/xmlschemas/TrackPointExtension/v1 http://www.garmin.com/xmlschemas/TrackPointExtensionv1.xsd" xmlns:gpxtpx="http://www.garmin.com/xmlschemas/TrackPointExtension/v1" xmlns:gpxx="http://www.garmin.com/xmlschemas/GpxExtensions/v3">
 <metadata>
  <time>2026-09-12T14:52:33.156161Z</time>
 </metadata>
 <trk>
  <name>Run</name>
  <type>running</type>
  <trkseg>
   <trkpt lat="56.1974854" lon="9.5926002">
    <ele>110.8</ele>
    <time>2026-09-12T14:52:34.195265Z</time>
    <extensions>
     <gpxtpx:TrackPointExtension>
      <gpxtpx:hr>59</gpxtpx:hr>
     </gpxtpx:TrackPointExtension>
    </extensions>
   </trkpt>
   <trkpt lat="56.1974857" lon="9.5926005">
    <ele>110.9</ele>
    <time>2026-09-12T14:52:35.200656Z</time>
    <extensions>
     <gpxtpx:TrackPointExtension>
      <gpxtpx:hr>59</gpxtpx:hr>
     </gpxtpx:TrackPointExtension>
    </extensions>
   </trkpt>
   <trkpt lat="56.1974838" lon="9.5926002">
    <ele>110.6</ele>
    <time>2026-09-12T14:52:36.203048Z</time>
    <extensions>
     <gpxtpx:TrackPointExtension>
      <gpxtpx:hr>58</gpxtpx:hr>
     </gpxtpx:TrackPointExtension>
    </extensions>
   </trkpt>
   <trkpt lat="56.1974845" lon="9.5926003">
    <ele>110.7</ele>
    <time>2026-09-12T14:52:37.204220Z</time>
    <extensions>
     <gpxtpx:TrackPointExtension>
      <gpxtpx:hr>58</gpxtpx:hr>
     </gpxtpx:TrackPointExtension>
    </extensions>
   </trkpt>
   <trkpt lat="56.1974845" lon="9.5926003">
    <ele>110.7</ele>
    <time>2026-09-12T14:52:38.312114Z</time>
    <extensions>
     <gpxtpx:TrackPointExtension>
      <gpxtpx:hr>59</gpxtpx:hr>
     </gpxtpx:TrackPointExtension>
    </extensions>
   </trkpt>
   <trkpt lat="56.1974865" lon="9.5926025">
    <ele>110.9</ele>
    <time>2026-09-12T14:52:39.341505Z</time>
    <extensions>
     <gpxtpx:TrackPointExtension>
      <gpxtpx:hr>60</gpxtpx:hr>
     </gpxtpx:TrackPointExtension>
    </extensions>
   </trkpt>
   <trkpt lat="56.1974865" lon="9.5926025">
    <ele>110.9</ele>
    <time>2026-09-12T14:52:40.571938Z</time>
    <extensions>
     <gpxtpx:TrackPointExtension>
      <gpxtpx:hr>63</gpxtpx:hr>
     </gpxtpx:TrackPointExtension>
    </extensions>
   </trkpt>
   <trkpt lat="56.1974865" lon="9.5926025">
    <ele>110.9</ele>
    <time>2026-09-12T14:52:42.204737Z</time>
    <extensions>
     <gpxtpx:TrackPointExtension>
      <gpxtpx:hr>64</gpxtpx:hr>
     </gpxtpx:TrackPointExtension>
    </extensions>
   </trkpt>
   <trkpt lat="56.1974865" lon="9.5926025">
    <ele>110.9</ele>
    <time>2026-09-12T14:52:44.095357Z</time>
    <extensions>
     <gpxtpx:TrackPointExtension>
      <gpxtpx:hr>66</gpxtpx:hr>
     </gpxtpx:TrackPointExtension>
    </extensions>
   </trkpt>
   <trkpt lat="56.1974865" lon="9.5926025">
    <ele>110.9</ele>
    <time>2026-09-12T14:52:45.644572Z</time>
    <extensions>
     <gpxtpx:TrackPointExtension>
      <gpxtpx:hr>68</gpxtpx:hr>
     </gpxtpx:TrackPointExtension>
    </extensions>
   </trkpt>
   <trkpt lat="56.1974865" lon="9.5926025">
    <ele>110.9</ele>
    <time>2026-09-12T14:52:47.546885Z</time>
    <extensions>
     <gpxtpx:TrackPointExtension>
      <gpxtpx:hr>71</gpxtpx:hr>
     </gpxtpx:TrackPointExtension>
    </extensions>
   </trkpt>
   <trkpt lat="56.1974865" lon="9.5926025">
    <ele>110.9</ele>
    <time>2026-09-12T14:52:49.457123Z</time>
    <extensions>
     <gpxtpx:TrackPointExtension>
      <gpxtpx:hr>73</gpxtpx:hr>
     </gpxtpx:TrackPointExtension>
    </extensions>
   </trkpt>
   <trkpt lat="56.1974865" lon="9.5926025">
    <ele>110.9</ele>
    <time>2026-09-12T14:52:51.375669Z</time>
    <extensions>
     <gpxtpx:TrackPointExtension>
      <gpxtpx:hr>73</gpxtpx:hr>
     </gpxtpx:TrackPointExtension>
    </extensions>
   </trkpt>
   <trkpt lat="56.1974865" lon="9.5926025">
    <ele>110.9</ele>
    <time>2026-09-12T14:52:52.380183Z</time>
    <extensions>
     <gpxtpx:TrackPointExtension>
      <gpxtpx:hr>73</gpxtpx:hr>
     </gpxtpx:TrackPointExtension>
    </extensions>
   </trkpt>
   <trkpt lat="56.1974865" lon="9.5926025">
    <ele>110.9</ele>
    <time>2026-09-12T14:52:53.384967Z</time>
    <extensions>
     <gpxtpx:TrackPointExtension>
      <gpxtpx:hr>73</gpxtpx:hr>
     </gpxtpx:TrackPointExtension>
    </extensions>
   </trkpt>
   <trkpt lat="56.1974865" lon="9.5926025">
    <ele>110.9</ele>
    <time>2026-09-12T14:52:55.537320Z</time>
    <extensions>
     <gpxtpx:TrackPointExtension>
      <gpxtpx:hr>71</gpxtpx:hr>
     </gpxtpx:TrackPointExtension>
    </extensions>
   </trkpt>
   <trkpt lat="56.1974865" lon="9.5926025">
    <ele>110.9</ele>
    <time>2026-09-12T14:52:57.429978Z</time>
    <extensions>
     <gpxtpx:TrackPointExtension>
      <gpxtpx:hr>71</gpxtpx:hr>
     </gpxtpx:TrackPointExtension>
    </extensions>
   </trkpt>
   <trkpt lat="56.1974865" lon="9.5926025">
    <ele>110.9</ele>
    <time>2026-09-12T14:52:59.505736Z</time>
    <extensions>
     <gpxtpx:TrackPointExtension>
      <gpxtpx:hr>71</gpxtpx:hr>
     </gpxtpx:TrackPointExtension>
    </extensions>
   </trkpt>
   <trkpt lat="56.1974865" lon="9.5926025">
    <ele>110.9</ele>
    <time>2026-09-12T14:53:00.982995Z</time>
    <extensions>
     <gpxtpx:TrackPointExtension>
      <gpxtpx:hr>72</gpxtpx:hr>
     </gpxtpx:TrackPointExtension>
    </extensions>
   </trkpt>
   <trkpt lat="56.1974865" lon="9.5926025">
    <ele>110.9</ele>
    <time>2026-09-12T14:53:02.534007Z</time>
    <extensions>
     <gpxtpx:TrackPointExtension>
      <gpxtpx:hr>73</gpxtpx:hr>
     </gpxtpx:TrackPointExtension>
    </extensions>
   </trkpt>
   <trkpt lat="56.1974865" lon="9.5926025">
    <ele>110.9</ele>
    <time>2026-09-12T14:53:05.461813Z</time>
    <extensions>
     <gpxtpx:TrackPointExtension>
      <gpxtpx:hr>74</gpxtpx:hr>
     </gpxtpx:TrackPointExtension>
    </extensions>
   </trkpt>
   <trkpt lat="56.1974865" lon="9.5926025">
    <ele>110.9</ele>
    <time>2026-09-12T14:53:07.302599Z</time>
    <extensions>
     <gpxtpx:TrackPointExtension>
      <gpxtpx:hr>75</gpxtpx:hr>
     </gpxtpx:TrackPointExtension>
    </extensions>
   </trkpt>
   <trkpt lat="56.1974865" lon="9.5926025">
    <ele>110.9</ele>
    <time>2026-09-12T14:53:09.412041Z</time>
    <extensions>
     <gpxtpx:TrackPointExtension>
      <gpxtpx:hr>75</gpxtpx:hr>
     </gpxtpx:TrackPointExtension>
    </extensions>
   </trkpt>
   <trkpt lat="56.1974865" lon="9.5926025">
    <ele>110.9</ele>
    <time>2026-09-12T14:53:10.416056Z</time>
    <extensions>
     <gpxtpx:TrackPointExtension>
      <gpxtpx:hr>76</gpxtpx:hr>
     </gpxtpx:TrackPointExtension>
    </extensions>
   </trkpt>
   <trkpt lat="56.1974865" lon="9.5926025">
    <ele>110.9</ele>
    <time>2026-09-12T14:53:12.381486Z</time>
    <extensions>
     <gpxtpx:TrackPointExtension>
      <gpxtpx:hr>76</gpxtpx:hr>
     </gpxtpx:TrackPointExtension>
    </extensions>
   </trkpt>
   <trkpt lat="56.1974865" lon="9.5926025">
    <ele>110.9</ele>
    <time>2026-09-12T14:53:13.385934Z</time>
    <extensions>
     <gpxtpx:TrackPointExtension>
      <gpxtpx:hr>77</gpxtpx:hr>
     </gpxtpx:TrackPointExtension>
    </extensions>
   </trkpt>
   <trkpt lat="56.1974865" lon="9.5926025">
    <ele>110.9</ele>
    <time>2026-09-12T14:53:16.277908Z</time>
    <extensions>
     <gpxtpx:TrackPointExtension>
      <gpxtpx:hr>78</gpxtpx:hr>
     </gpxtpx:TrackPointExtension>
    </extensions>
   </trkpt>
   <trkpt lat="56.1974865" lon="9.5926025">
    <ele>110.9</ele>
    <time>2026-09-12T14:53:18.794907Z</time>
    <extensions>
     <gpxtpx:TrackPointExtension>
      <gpxtpx:hr>76</gpxtpx:hr>
     </gpxtpx:TrackPointExtension>
    </extensions>
   </trkpt>
   <trkpt lat="56.1974865" lon="9.5926025">
    <ele>110.9</ele>
    <time>2026-09-12T14:53:20.901133Z</time>
    <extensions>
     <gpxtpx:TrackPointExtension>
      <gpxtpx:hr>75</gpxtpx:hr>
     </gpxtpx:TrackPointExtension>
    </extensions>
   </trkpt>
   <trkpt lat="56.1974865" lon="9.5926025">
    <ele>110.9</ele>
    <time>2026-09-12T14:53:23.355302Z</time>
    <extensions>
     <gpxtpx:TrackPointExtension>
      <gpxtpx:hr>74</gpxtpx:hr>
     </gpxtpx:TrackPointExtension>
    </extensions>
   </trkpt>
   <trkpt lat="56.1974865" lon="9.5926025">
    <ele>110.9</ele>
    <time>2026-09-12T14:53:24.767172Z</time>
    <extensions>
     <gpxtpx:TrackPointExtension>
      <gpxtpx:hr>75</gpxtpx:hr>
     </gpxtpx:TrackPointExtension>
    </extensions>
   </trkpt>
   <trkpt lat="56.1974865" lon="9.5926025">
    <ele>110.9</ele>
    <time>2026-09-12T14:53:25.770742Z</time>
    <extensions>
     <gpxtpx:TrackPointExtension>
      <gpxtpx:hr>75</gpxtpx:hr>
     </gpxtpx:TrackPointExtension>
    </extensions>
   </trkpt>
   <trkpt lat="56.1974865" lon="9.5926025">
    <ele>110.9</ele>
    <time>2026-09-12T14:53:27.718530Z</time>
    <extensions>
     <gpxtpx:TrackPointExtension>
      <gpxtpx:hr>75</gpxtpx:hr>
     </gpxtpx:TrackPointExtension>
    </extensions>
   </trkpt>
   <trkpt lat="56.1974865" lon="9.5926025">
    <ele>110.9</ele>
    <time>2026-09-12T14:53:29.672424Z</time>
    <extensions>
     <gpxtpx:TrackPointExtension>
      <gpxtpx:hr>75</gpxtpx:hr>
     </gpxtpx:TrackPointExtension>
    </extensions>
   </trkpt>
   <trkpt lat="56.1974865" lon="9.5926025">
    <ele>110.9</ele>
    <time>2026-09-12T14:53:30.675568Z</time>
    <extensions>
     <gpxtpx:TrackPointExtension>
      <gpxtpx:hr>75</gpxtpx:hr>
     </gpxtpx:TrackPointExtension>
    </extensions>
   </trkpt>
   <trkpt lat="56.1974865" lon="9.5926025">
    <ele>110.9</ele>
    <time>2026-09-12T14:53:32.664424Z</time>
    <extensions>
     <gpxtpx:TrackPointExtension>
      <gpxtpx:hr>75</gpxtpx:hr>
     </gpxtpx:TrackPointExtension>
    </extensions>
   </trkpt>
   <trkpt lat="56.1974865" lon="9.5926025">
    <ele>110.9</ele>
    <time>2026-09-12T14:53:33.668492Z</time>
    <extensions>
     <gpxtpx:TrackPointExtension>
      <gpxtpx:hr>75</gpxtpx:hr>
     </gpxtpx:TrackPointExtension>
    </extensions>
   </trkpt>
   <trkpt lat="56.1974865" lon="9.5926025">
    <ele>110.9</ele>
    <time>2026-09-12T14:53:34.672903Z</time>
    <extensions>
     <gpxtpx:TrackPointExtension>
      <gpxtpx:hr>75</gpxtpx:hr>
     </gpxtpx:TrackPointExtension>
    </extensions>
   </trkpt>
   <trkpt lat="56.1974865" lon="9.5926025">
    <ele>110.9</ele>
    <time>2026-09-12T14:53:36.629790Z</time>
    <extensions>
     <gpxtpx:TrackPointExtension>
      <gpxtpx:hr>76</gpxtpx:hr>
     </gpxtpx:TrackPointExtension>
    </extensions>
   </trkpt>
   <trkpt lat="56.1974865" lon="9.5926025">
    <ele>110.9</ele>
    <time>2026-09-12T14:53:37.807497Z</time>
    <extensions>
     <gpxtpx:TrackPointExtension>
      <gpxtpx:hr>77</gpxtpx:hr>
     </gpxtpx:TrackPointExtension>
    </extensions>
   </trkpt>
   <trkpt lat="56.1974865" lon="9.5926025">
    <ele>110.9</ele>
    <time>2026-09-12T14:53:39.614839Z</time>
    <extensions>
     <gpxtpx:TrackPointExtension>
      <gpxtpx:hr>77</gpxtpx:hr>
     </gpxtpx:TrackPointExtension>
    </extensions>
   </trkpt>
   <trkpt lat="56.1974865" lon="9.5926025">
    <ele>110.9</ele>
    <time>2026-09-12T14:53:42.504760Z</time>
    <extensions>
     <gpxtpx:TrackPointExtension>
      <gpxtpx:hr>77</gpxtpx:hr>
     </gpxtpx:TrackPointExtension>
    </extensions>
   </trkpt>
   <trkpt lat="56.1974865" lon="9.5926025">
    <ele>110.9</ele>
    <time>2026-09-12T14:53:44.536935Z</time>
    <extensions>
     <gpxtpx:TrackPointExtension>
      <gpxtpx:hr>76</gpxtpx:hr>
     </gpxtpx:TrackPointExtension>
    </extensions>
   </trkpt>
   <trkpt lat="56.1974865" lon="9.5926025">
    <ele>110.9</ele>
    <time>2026-09-12T14:53:45.999056Z</time>
    <extensions>
     <gpxtpx:TrackPointExtension>
      <gpxtpx:hr>75</gpxtpx:hr>
     </gpxtpx:TrackPointExtension>
    </extensions>
   </trkpt>
   <trkpt lat="56.1974865" lon="9.5926025">
    <ele>110.9</ele>
    <time>2026-09-12T14:53:47.589475Z</time>
    <extensions>
     <gpxtpx:TrackPointExtension>
      <gpxtpx:hr>76</gpxtpx:hr>
     </gpxtpx:TrackPointExtension>
    </extensions>
   </trkpt>
   <trkpt lat="56.1974865" lon="9.5926025">
    <ele>110.9</ele>
    <time>2026-09-12T14:53:49.510746Z</time>
    <extensions>
     <gpxtpx:TrackPointExtension>
      <gpxtpx:hr>76</gpxtpx:hr>
     </gpxtpx:TrackPointExtension>
    </extensions>
   </trkpt>
   <trkpt lat="56.1974865" lon="9.5926025">
    <ele>110.9</ele>
    <time>2026-09-12T14:53:50.515758Z</time>
    <extensions>
     <gpxtpx:TrackPointExtension>
      <gpxtpx:hr>76</gpxtpx:hr>
     </gpxtpx:TrackPointExtension>
    </extensions>
   </trkpt>
   <trkpt lat="56.1974865" lon="9.5926025">
    <ele>110.9</ele>
    <time>2026-09-12T14:53:52.500472Z</time>
    <extensions>
     <gpxtpx:TrackPointExtension>
      <gpxtpx:hr>76</gpxtpx:hr>
     </gpxtpx:TrackPointExtension>
    </extensions>
   </trkpt>
   <trkpt lat="56.1974865" lon="9.5926025">
    <ele>110.9</ele>
    <time>2026-09-12T14:53:53.505732Z</time>
    <extensions>
     <gpxtpx:TrackPointExtension>
      <gpxtpx:hr>76</gpxtpx:hr>
     </gpxtpx:TrackPointExtension>
    </extensions>
   </trkpt>
   <trkpt lat="56.1974865" lon="9.5926025">
    <ele>110.9</ele>
    <time>2026-09-12T14:53:55.389758Z</time>
    <extensions>
     <gpxtpx:TrackPointExtension>
      <gpxtpx:hr>75</gpxtpx:hr>
     </gpxtpx:TrackPointExtension>
    </extensions>
   </trkpt>
   <trkpt lat="56.1974865" lon="9.5926025">
    <ele>110.9</ele>
    <time>2026-09-12T14:53:57.557382Z</time>
    <extensions>
     <gpxtpx:TrackPointExtension>
      <gpxtpx:hr>75</gpxtpx:hr>
     </gpxtpx:TrackPointExtension>
    </extensions>
   </trkpt>
   <trkpt lat="56.1974865" lon="9.5926025">
    <ele>110.9</ele>
    <time>2026-09-12T14:53:59.381533Z</time>
    <extensions>
     <gpxtpx:TrackPointExtension>
      <gpxtpx:hr>76</gpxtpx:hr>
     </gpxtpx:TrackPointExtension>
    </extensions>
   </trkpt>
   <trkpt lat="56.1974865" lon="9.5926025">
    <ele>110.9</ele>
    <time>2026-09-12T14:54:01.483112Z</time>
    <extensions>
     <gpxtpx:TrackPointExtension>
      <gpxtpx:hr>77</gpxtpx:hr>
     </gpxtpx:TrackPointExtension>
    </extensions>
   </trkpt>
   <trkpt lat="56.1974865" lon="9.5926025">
    <ele>110.9</ele>
    <time>2026-09-12T14:54:03.457030Z</time>
    <extensions>
     <gpxtpx:TrackPointExtension>
      <gpxtpx:hr>77</gpxtpx:hr>
     </gpxtpx:TrackPointExtension>
    </extensions>
   </trkpt>
   <trkpt lat="56.1974865" lon="9.5926025">
    <ele>110.9</ele>
    <time>2026-09-12T14:54:04.463190Z</time>
    <extensions>
     <gpxtpx:TrackPointExtension>
      <gpxtpx:hr>77</gpxtpx:hr>
     </gpxtpx:TrackPointExtension>
    </extensions>
   </trkpt>
   <trkpt lat="56.1974865" lon="9.5926025">
    <ele>110.9</ele>
    <time>2026-09-12T14:54:06.832526Z</time>
    <extensions>
     <gpxtpx:TrackPointExtension>
      <gpxtpx:hr>77</gpxtpx:hr>
     </gpxtpx:TrackPointExtension>
    </extensions>
   </trkpt>
   <trkpt lat="56.1974865" lon="9.5926025">
    <ele>110.9</ele>
    <time>2026-09-12T14:54:07.988306Z</time>
    <extensions>
     <gpxtpx:TrackPointExtension>
      <gpxtpx:hr>77</gpxtpx:hr>
     </gpxtpx:TrackPointExtension>
    </extensions>
   </trkpt>
   <trkpt lat="56.1974865" lon="9.5926025">
    <ele>110.9</ele>
    <time>2026-09-12T14:54:08.989372Z</time>
    <extensions>
     <gpxtpx:TrackPointExtension>
      <gpxtpx:hr>77</gpxtpx:hr>
     </gpxtpx:TrackPointExtension>
    </extensions>
   </trkpt>
   <trkpt lat="56.1974865" lon="9.5926025">
    <ele>110.9</ele>
    <time>2026-09-12T14:54:09.990251Z</time>
    <extensions>
     <gpxtpx:TrackPointExtension>
      <gpxtpx:hr>77</gpxtpx:hr>
     </gpxtpx:TrackPointExtension>
    </extensions>
   </trkpt>
   <trkpt lat="56.1974865" lon="9.5926025">
    <ele>110.9</ele>
    <time>2026-09-12T14:54:10.991431Z</time>
    <extensions>
     <gpxtpx:TrackPointExtension>
      <gpxtpx:hr>78</gpxtpx:hr>
     </gpxtpx:TrackPointExtension>
    </extensions>
   </trkpt>
   <trkpt lat="56.1974865" lon="9.5926025">
    <ele>110.9</ele>
    <time>2026-09-12T14:54:12.028834Z</time>
    <extensions>
     <gpxtpx:TrackPointExtension>
      <gpxtpx:hr>78</gpxtpx:hr>
     </gpxtpx:TrackPointExtension>
    </extensions>
   </trkpt>
   <trkpt lat="56.1974865" lon="9.5926025">
    <ele>110.9</ele>
    <time>2026-09-12T14:54:13.030622Z</time>
    <extensions>
     <gpxtpx:TrackPointExtension>
      <gpxtpx:hr>80</gpxtpx:hr>
     </gpxtpx:TrackPointExtension>
    </extensions>
   </trkpt>
   <trkpt lat="56.1974865" lon="9.5926025">
    <ele>110.9</ele>
    <time>2026-09-12T14:54:14.032050Z</time>
    <extensions>
     <gpxtpx:TrackPointExtension>
      <gpxtpx:hr>81</gpxtpx:hr>
     </gpxtpx:TrackPointExtension>
    </extensions>
   </trkpt>
   <trkpt lat="56.1974865" lon="9.5926025">
    <ele>110.9</ele>
    <time>2026-09-12T14:54:15.034478Z</time>
    <extensions>
     <gpxtpx:TrackPointExtension>
      <gpxtpx:hr>83</gpxtpx:hr>
     </gpxtpx:TrackPointExtension>
    </extensions>
   </trkpt>
   <trkpt lat="56.1974865" lon="9.5926025">
    <ele>110.9</ele>
    <time>2026-09-12T14:54:16.036375Z</time>
    <extensions>
     <gpxtpx:TrackPointExtension>
      <gpxtpx:hr>83</gpxtpx:hr>
     </gpxtpx:TrackPointExtension>
    </extensions>
   </trkpt>
   <trkpt lat="56.1974865" lon="9.5926025">
    <ele>110.9</ele>
    <time>2026-09-12T14:54:17.041017Z</time>
    <extensions>
     <gpxtpx:TrackPointExtension>
      <gpxtpx:hr>86</gpxtpx:hr>
     </gpxtpx:TrackPointExtension>
    </extensions>
   </trkpt>
   <trkpt lat="56.1974865" lon="9.5926025">
    <ele>110.9</ele>
    <time>2026-09-12T14:54:18.044994Z</time>
    <extensions>
     <gpxtpx:TrackPointExtension>
      <gpxtpx:hr>89</gpxtpx:hr>
     </gpxtpx:TrackPointExtension>
    </extensions>
   </trkpt>
   <trkpt lat="56.1974865" lon="9.5926025">
    <ele>110.9</ele>
    <time>2026-09-12T14:54:19.179654Z</time>
    <extensions>
     <gpxtpx:TrackPointExtension>
      <gpxtpx:hr>90</gpxtpx:hr>
     </gpxtpx:TrackPointExtension>
    </extensions>
   </trkpt>
   <trkpt lat="56.1974865" lon="9.5926025">
    <ele>110.9</ele>
    <time>2026-09-12T14:54:20.182860Z</time>
    <extensions>
     <gpxtpx:TrackPointExtension>
      <gpxtpx:hr>92</gpxtpx:hr>
     </gpxtpx:TrackPointExtension>
    </extensions>
   </trkpt>
   <trkpt lat="56.1974865" lon="9.5926025">
    <ele>110.9</ele>
    <time>2026-09-12T14:54:21.611810Z</time>
    <extensions>
     <gpxtpx:TrackPointExtension>
      <gpxtpx:hr>94</gpxtpx:hr>
     </gpxtpx:TrackPointExtension>
    </extensions>
   </trkpt>
   <trkpt lat="56.1974865" lon="9.5926025">
    <ele>110.9</ele>
    <time>2026-09-12T14:54:23.661222Z</time>
    <extensions>
     <gpxtpx:TrackPointExtension>
      <gpxtpx:hr>96</gpxtpx:hr>
     </gpxtpx:TrackPointExtension>
    </extensions>
   </trkpt>
   <trkpt lat="56.1974865" lon="9.5926025">
    <ele>110.9</ele>
    <time>2026-09-12T14:54:25.628778Z</time>
    <extensions>
     <gpxtpx:TrackPointExtension>
      <gpxtpx:hr>98</gpxtpx:hr>
     </gpxtpx:TrackPointExtension>
    </extensions>
   </trkpt>
   <trkpt lat="56.1974865" lon="9.5926025">
    <ele>110.9</ele>
    <time>2026-09-12T14:54:26.632089Z</time>
    <extensions>
     <gpxtpx:TrackPointExtension>
      <gpxtpx:hr>99</gpxtpx:hr>
     </gpxtpx:TrackPointExtension>
    </extensions>
   </trkpt>
   <trkpt lat="56.1974865" lon="9.5926025">
    <ele>110.9</ele>
    <time>2026-09-12T14:54:28.628973Z</time>
    <extensions>
     <gpxtpx:TrackPointExtension>
      <gpxtpx:hr>100</gpxtpx:hr>
     </gpxtpx:TrackPointExtension>
    </extensions>
   </trkpt>
   <trkpt lat="56.1974865" lon="9.5926025">
    <ele>110.9</ele>
    <time>2026-09-12T14:54:29.743888Z</time>
    <extensions>
     <gpxtpx:TrackPointExtension>
      <gpxtpx:hr>101</gpxtpx:hr>
     </gpxtpx:TrackPointExtension>
    </extensions>
   </trkpt>
   <trkpt lat="56.1974865" lon="9.5926025">
    <ele>110.9</ele>
    <time>2026-09-12T14:54:30.747410Z</time>
    <extensions>
     <gpxtpx:TrackPointExtension>
      <gpxtpx:hr>102</gpxtpx:hr>
     </gpxtpx:TrackPointExtension>
    </extensions>
   </trkpt>
   <trkpt lat="56.1974865" lon="9.5926025">
    <ele>110.9</ele>
    <time>2026-09-12T14:54:32.730788Z</time>
    <extensions>
     <gpxtpx:TrackPointExtension>
      <gpxtpx:hr>103</gpxtpx:hr>
     </gpxtpx:TrackPointExtension>
    </extensions>
   </trkpt>
   <trkpt lat="56.1974865" lon="9.5926025">
    <ele>110.9</ele>
    <time>2026-09-12T14:54:34.529809Z</time>
    <extensions>
     <gpxtpx:TrackPointExtension>
      <gpxtpx:hr>103</gpxtpx:hr>
     </gpxtpx:TrackPointExtension>
    </extensions>
   </trkpt>
   <trkpt lat="56.1974865" lon="9.5926025">
    <ele>110.9</ele>
    <time>2026-09-12T14:54:36.103097Z</time>
    <extensions>
     <gpxtpx:TrackPointExtension>
      <gpxtpx:hr>104</gpxtpx:hr>
     </gpxtpx:TrackPointExtension>
    </extensions>
   </trkpt>
   <trkpt lat="56.1974865" lon="9.5926025">
    <ele>110.9</ele>
    <time>2026-09-12T14:54:37.104430Z</time>
    <extensions>
     <gpxtpx:TrackPointExtension>
      <gpxtpx:hr>105</gpxtpx:hr>
     </gpxtpx:TrackPointExtension>
    </extensions>
   </trkpt>
   <trkpt lat="56.1974865" lon="9.5926025">
    <ele>110.9</ele>
    <time>2026-09-12T14:54:38.105635Z</time>
    <extensions>
     <gpxtpx:TrackPointExtension>
      <gpxtpx:hr>106</gpxtpx:hr>
     </gpxtpx:TrackPointExtension>
    </extensions>
   </trkpt>
   <trkpt lat="56.1974865" lon="9.5926025">
    <ele>110.9</ele>
    <time>2026-09-12T14:54:39.106356Z</time>
    <extensions>
     <gpxtpx:TrackPointExtension>
      <gpxtpx:hr>106</gpxtpx:hr>
     </gpxtpx:TrackPointExtension>
    </extensions>
   </trkpt>
  </trkseg>
 </trk>
</gpx>
